{"type": "FeatureCollection", "features": [ {"type": "Feature", "properties": {"norad_id": 44543, "name": "BEIDOU-3 M23 (C45)", "group": "beidou", "lat": 54.04510335413854, "lon": -71.62012392781594, "alt_km": 21517.327571336427, "timestamp": "2025-12-02T10:50:47.539361+00:00", "meta": {"OBJECT_NAME": "BEIDOU-3 M23 (C45)", "OBJECT_ID": "2019-061B", "EPOCH": "2025-12-02T01:08:19.108032", "MEAN_MOTION": 1.86229309, "ECCENTRICITY": 0.0006011, "INCLINATION": 54.3988, "RA_OF_ASC_NODE": 189.3457, "ARG_OF_PERICENTER": 20.9817, "MEAN_ANOMALY": 163.1206, "EPHEMERIS_TYPE": 0, "CLASSIFICATION_TYPE": "U", "NORAD_CAT_ID": 44543, "ELEMENT_SET_NO": 999, "REV_AT_EPOCH": 4212, "BSTAR": 0, "MEAN_MOTION_DOT": 1.21e-06, "MEAN_MOTION_DDOT": 0}, "tle": {"line1": "1 44543U 19061B   25336.04744338  .00000121  00000+0  00000+0 0  9991", "line2": "2 44543  54.3988 189.3457 0006011  20.9817 163.1206  1.86229309 42129"}}, "geometry": {"type": "Point", "coordinates": [-71.62012392781594, 54.04510335413854]}}, {"type": "Feature", "properties": {"norad_id": 44709, "name": "BEIDOU-3 IGSO-3 (C40)", "group": "beidou", "lat": 48.19735388050722, "lon": -25.9125896724729, "alt_km": 35898.5247130579, "timestamp": "2025-12-02T10:50:47.539373+00:00", "meta": {"OBJECT_NAME": "BEIDOU-3 IGSO-3 (C40)", "OBJECT_ID": "2019-073A", "EPOCH": "2025-11-20T07:11:22.740000", "MEAN_MOTION": 1.00250097, "ECCENTRICITY": 0.0044538, "INCLINATION": 55.163, "RA_OF_ASC_NODE": 283.159, "ARG_OF_PERICENTER": 191.5856, "MEAN_ANOMALY": 168.2409, "EPHEMERIS_TYPE": 0, "CLASSIFICATION_TYPE": "U", "NORAD_CAT_ID": 44709, "ELEMENT_SET_NO": 999, "REV_AT_EPOCH": 2236, "BSTAR": 0, "MEAN_MOTION_DOT": -2.06e-06, "MEAN_MOTION_DDOT": 0}, "tle": {"line1": "1 44709U 19073A   25324.29956875 -.00000206  00000+0  00000+0 0  9998", "line2": "2 44709  55.1630 283.1590 0044538 191.5856 168.2409  1.00250097 22360"}}, "geometry": {"type": "Point", "coordinates": [-25.9125896724729, 48.19735388050722]}}, {"type": "Feature", "properties": {"norad_id": 44793, "name": "BEIDOU-3 M22 (C44)", "group": "beidou", "lat": -49.79276445362682, "lon": -112.14876483187093, "alt_km": 21534.325328815165, "timestamp": "2025-12-02T10:50:47.539387+00:00", "meta": {"OBJECT_NAME": "BEIDOU-3 M22 (C44)", "OBJECT_ID": "2019-078A", "EPOCH": "2025-12-02T00:28:58.554624", "MEAN_MOTION": 1.86231817, "ECCENTRICITY": 0.0005633, "INCLINATION": 54.1183, "RA_OF_ASC_NODE": 306.7625, "ARG_OF_PERICENTER": 22.616, "MEAN_ANOMALY": 337.398, "EPHEMERIS_TYPE": 0, "CLASSIFICATION_TYPE": "U", "NORAD_CAT_ID": 44793, "ELEMENT_SET_NO": 999, "REV_AT_EPOCH": 4097, "BSTAR": 0, "MEAN_MOTION_DOT": -6.1e-07, "MEAN_MOTION_DDOT": 0}, "tle": {"line1": "1 44793U 19078A   25336.02012216 -.00000061  00000+0  00000+0 0  9991", "line2": "2 44793  54.1183 306.7625 0005633  22.6160 337.3980  1.86231817 40974"}}, "geometry": {"type": "Point", "coordinates": [-112.14876483187093, -49.79276445362682]}}, {"type": "Feature", "properties": {"norad_id": 44794, "name": "BEIDOU-3 M21 (C43)", "group": "beidou", "lat": -14.032147338699858, "lon": 137.12272848765073, "alt_km": 21541.10661520822, "timestamp": "2025-12-02T10:50:47.539398+00:00", "meta": {"OBJECT_NAME": "BEIDOU-3 M21 (C43)", "OBJECT_ID": "2019-078B", "EPOCH": "2025-12-01T02:00:26.030304", "MEAN_MOTION": 1.86227539, "ECCENTRICITY": 0.00038706, "INCLINATION": 54.0922, "RA_OF_ASC_NODE": 306.7607, "ARG_OF_PERICENTER": 10.0971, "MEAN_ANOMALY": 349.9036, "EPHEMERIS_TYPE": 0, "CLASSIFICATION_TYPE": "U", "NORAD_CAT_ID": 44794, "ELEMENT_SET_NO": 999, "REV_AT_EPOCH": 4096, "BSTAR": 0, "MEAN_MOTION_DOT": -5.7e-07, "MEAN_MOTION_DDOT": 0}, "tle": {"line1": "1 44794U 19078B   25335.08363461 -.00000057  00000+0  00000+0 0  9993", "line2": "2 44794  54.0922 306.7607 0003870  10.0971 349.9036  1.86227539 40963"}}, "geometry": {"type": "Point", "coordinates": [137.12272848765073, -14.032147338699858]}}, {"type": "Feature", "properties": {"norad_id": 44864, "name": "BEIDOU-3 M19 (C41)", "group": "beidou", "lat": 27.155185445525436, "lon": 89.2235154361523, "alt_km": 21540.114941824377, "timestamp": "2025-12-02T10:50:47.539409+00:00", "meta": {"OBJECT_NAME": "BEIDOU-3 M19 (C41)", "OBJECT_ID": "2019-090A", "EPOCH": "2025-12-01T20:54:26.017344", "MEAN_MOTION": 1.86231094, "ECCENTRICITY": 0.0017512, "INCLINATION": 56.3837, "RA_OF_ASC_NODE": 69.3227, "ARG_OF_PERICENTER": 284.7988, "MEAN_ANOMALY": 78.8343, "EPHEMERIS_TYPE": 0, "CLASSIFICATION_TYPE": "U", "NORAD_CAT_ID": 44864, "ELEMENT_SET_NO": 999, "REV_AT_EPOCH": 4056, "BSTAR": 0, "MEAN_MOTION_DOT": -4.4e-07, "MEAN_MOTION_DDOT": 0}, "tle": {"line1": "1 44864U 19090A   25335.87113446 -.00000044  00000+0  00000+0 0  9994", "line2": "2 44864  56.3837  69.3227 0017512 284.7988  78.8343  1.86231094 40563"}}, "geometry": {"type": "Point", "coordinates": [89.2235154361523, 27.155185445525436]}}, {"type": "Feature", "properties": {"norad_id": 44865, "name": "BEIDOU-3 M20 (C42)", "group": "beidou", "lat": 44.52413279633074, "lon": -151.45354162416925, "alt_km": 21563.28639561597, "timestamp": "2025-12-02T10:50:47.539421+00:00", "meta": {"OBJECT_NAME": "BEIDOU-3 M20 (C42)", "OBJECT_ID": "2019-090B", "EPOCH": "2025-12-01T04:44:21.164352", "MEAN_MOTION": 1.86231112, "ECCENTRICITY": 0.0014612, "INCLINATION": 56.3845, "RA_OF_ASC_NODE": 69.3793, "ARG_OF_PERICENTER": 297.5654, "MEAN_ANOMALY": 64.0235, "EPHEMERIS_TYPE": 0, "CLASSIFICATION_TYPE": "U", "NORAD_CAT_ID": 44865, "ELEMENT_SET_NO": 999, "REV_AT_EPOCH": 4053, "BSTAR": 0, "MEAN_MOTION_DOT": -3.9e-07, "MEAN_MOTION_DDOT": 0}, "tle": {"line1": "1 44865U 19090B   25335.19746718 -.00000039  00000+0  00000+0 0  9998", "line2": "2 44865  56.3845  69.3793 0014612 297.5654  64.0235  1.86231112 40536"}}, "geometry": {"type": "Point", "coordinates": [-151.45354162416925, 44.52413279633074]}}, {"type": "Feature", "properties": {"norad_id": 45344, "name": "BEIDOU-3 G2 (C60)", "group": "beidou", "lat": -2.9808640746145145, "lon": -45.70433988937404, "alt_km": 35767.9877053915, "timestamp": "2025-12-02T10:50:47.539432+00:00", "meta": {"OBJECT_NAME": "BEIDOU-3 G2 (C60)", "OBJECT_ID": "2020-017A", "EPOCH": "2025-12-02T03:53:29.384160", "MEAN_MOTION": 1.00270477, "ECCENTRICITY": 0.0004521, "INCLINATION": 2.98, "RA_OF_ASC_NODE": 43.5362, "ARG_OF_PERICENTER": 263.9121, "MEAN_ANOMALY": 262.2537, "EPHEMERIS_TYPE": 0, "CLASSIFICATION_TYPE": "U", "NORAD_CAT_ID": 45344, "ELEMENT_SET_NO": 999, "REV_AT_EPOCH": 2128, "BSTAR": 0, "MEAN_MOTION_DOT": -1.22e-06, "MEAN_MOTION_DDOT": 0}, "tle": {"line1": "1 45344U 20017A   25336.16214565 -.00000122  00000+0  00000+0 0  9993", "line2": "2 45344   2.9800  43.5362 0004521 263.9121 262.2537  1.00270477 21288"}}, "geometry": {"type": "Point", "coordinates": [-45.70433988937404, -2.9808640746145145]}}, {"type": "Feature", "properties": {"norad_id": 45807, "name": "BEIDOU-3 G3 (C61)", "group": "beidou", "lat": -1.931734156983752, "lon": -15.268915242425436, "alt_km": 35769.3139725189, "timestamp": "2025-12-02T10:50:47.539444+00:00", "meta": {"OBJECT_NAME": "BEIDOU-3 G3 (C61)", "OBJECT_ID": "2020-040A", "EPOCH": "2025-12-01T14:20:22.098336", "MEAN_MOTION": 1.00267664, "ECCENTRICITY": 0.0004952, "INCLINATION": 1.9619, "RA_OF_ASC_NODE": 66.5006, "ARG_OF_PERICENTER": 306.5523, "MEAN_ANOMALY": 23.2908, "EPHEMERIS_TYPE": 0, "CLASSIFICATION_TYPE": "U", "NORAD_CAT_ID": 45807, "ELEMENT_SET_NO": 999, "REV_AT_EPOCH": 2008, "BSTAR": 0, "MEAN_MOTION_DOT": -3.32e-06, "MEAN_MOTION_DDOT": 0}, "tle": {"line1": "1 45807U 20040A   25335.59747799 -.00000332  00000+0  00000+0 0  9992", "line2": "2 45807   1.9619  66.5006 0004952 306.5523  23.2908  1.00267664 20085"}}, "geometry": {"type": "Point", "coordinates": [-15.268915242425436, -1.931734156983752]}}, {"type": "Feature", "properties": {"norad_id": 56564, "name": "BEIDOU-3 G4 (C62)", "group": "beidou", "lat": 0.8619589536604348, "lon": 34.26979515905225, "alt_km": 35797.2589801375, "timestamp": "2025-12-02T10:50:47.539456+00:00", "meta": {"OBJECT_NAME": "BEIDOU-3 G4 (C62)", "OBJECT_ID": "2023-066A", "EPOCH": "2025-12-02T04:16:27.185088", "MEAN_MOTION": 1.00271071, "ECCENTRICITY": 0.0003397, "INCLINATION": 0.84, "RA_OF_ASC_NODE": 301.1189, "ARG_OF_PERICENTER": 233.9085, "MEAN_ANOMALY": 120.4429, "EPHEMERIS_TYPE": 0, "CLASSIFICATION_TYPE": "U", "NORAD_CAT_ID": 56564, "ELEMENT_SET_NO": 999, "REV_AT_EPOCH": 941, "BSTAR": 0, "MEAN_MOTION_DOT": -9e-07, "MEAN_MOTION_DDOT": 0}, "tle": {"line1": "1 56564U 23066A   25336.17809242 -.00000090  00000+0  00000+0 0  9993", "line2": "2 56564   0.8400 301.1189 0003397 233.9085 120.4429  1.00271071  9410"}}, "geometry": {"type": "Point", "coordinates": [34.26979515905225, 0.8619589536604348]}}, {"type": "Feature", "properties": {"norad_id": 58654, "name": "BEIDOU-3 M28 (C50)", "group": "beidou", "lat": 28.329931447416175, "lon": -132.71726803897698, "alt_km": 21527.417129475765, "timestamp": "2025-12-02T10:50:47.539468+00:00", "meta": {"OBJECT_NAME": "BEIDOU-3 M28 (C50)", "OBJECT_ID": "2023-207A", "EPOCH": "2025-12-01T03:53:10.155840", "MEAN_MOTION": 1.862296, "ECCENTRICITY": 0.00019433, "INCLINATION": 55.5745, "RA_OF_ASC_NODE": 68.9936, "ARG_OF_PERICENTER": 264.3364, "MEAN_ANOMALY": 95.6455, "EPHEMERIS_TYPE": 0, "CLASSIFICATION_TYPE": "U", "NORAD_CAT_ID": 58654, "ELEMENT_SET_NO": 999, "REV_AT_EPOCH": 1315, "BSTAR": 0, "MEAN_MOTION_DOT": -4e-07, "MEAN_MOTION_DDOT": 0}, "tle": {"line1": "1 58654U 23207A   25335.16192310 -.00000040  00000+0  00000+0 0  9996", "line2": "2 58654  55.5745  68.9936 0001943 264.3364  95.6455  1.86229600 13155"}}, "geometry": {"type": "Point", "coordinates": [-132.71726803897698, 28.329931447416175]}}]}